CCSDS_OMM_VERS = 2.0
CREATION_DATE  = 
ORIGINATOR     = 

OBJECT_NAME    = AQUA
OBJECT_ID      = 2002-022A
CENTER_NAME    = EARTH
REF_FRAME      = TEME
TIME_SYSTEM    = UTC
MEAN_ELEMENT_THEORY = SGP/SGP4

EPOCH          = 2026-03-14T21:06:47.853792
MEAN_MOTION    = 14.61990929
ECCENTRICITY   = .00006179
INCLINATION    = 98.4182
RA_OF_ASC_NODE = 41.3394
ARG_OF_PERICENTER = 100.4652
MEAN_ANOMALY   = 287.3845

EPHEMERIS_TYPE = 0
CLASSIFICATION_TYPE = U
NORAD_CAT_ID   = 27424
ELEMENT_SET_NO = 999
REV_AT_EPOCH   = 26949
BSTAR          = .24828752E-3
MEAN_MOTION_DOT = .1195E-4
MEAN_MOTION_DDOT = 0

CCSDS_OMM_VERS = 2.0
CREATION_DATE  = 
ORIGINATOR     = 

OBJECT_NAME    = CZ-4B R/B
OBJECT_ID      = 2002-024C
CENTER_NAME    = EARTH
REF_FRAME      = TEME
TIME_SYSTEM    = UTC
MEAN_ELEMENT_THEORY = SGP/SGP4

EPOCH          = 2026-03-14T21:42:27.078048
MEAN_MOTION    = 14.14548742
ECCENTRICITY   = .00502291
INCLINATION    = 98.8828
RA_OF_ASC_NODE = 127.2845
ARG_OF_PERICENTER = 9.4487
MEAN_ANOMALY   = 163.4282

EPHEMERIS_TYPE = 0
CLASSIFICATION_TYPE = U
NORAD_CAT_ID   = 27432
ELEMENT_SET_NO = 999
REV_AT_EPOCH   = 22997
BSTAR          = .50588673E-4
MEAN_MOTION_DOT = .54E-6
MEAN_MOTION_DDOT = 0

CCSDS_OMM_VERS = 2.0
CREATION_DATE  = 
ORIGINATOR     = 

OBJECT_NAME    = MIDORI II (ADEOS-II)
OBJECT_ID      = 2002-056A
CENTER_NAME    = EARTH
REF_FRAME      = TEME
TIME_SYSTEM    = UTC
MEAN_ELEMENT_THEORY = SGP/SGP4

EPOCH          = 2026-03-14T20:15:25.052544
MEAN_MOTION    = 14.29289539
ECCENTRICITY   = .00014008
INCLINATION    = 98.7775
RA_OF_ASC_NODE = 32.3574
ARG_OF_PERICENTER = 35.7423
MEAN_ANOMALY   = 324.3852

EPHEMERIS_TYPE = 0
CLASSIFICATION_TYPE = U
NORAD_CAT_ID   = 27597
ELEMENT_SET_NO = 999
REV_AT_EPOCH   = 21103
BSTAR          = .15166012E-3
MEAN_MOTION_DOT = .341E-5
MEAN_MOTION_DDOT = 0

CCSDS_OMM_VERS = 2.0
CREATION_DATE  = 
ORIGINATOR     = 

OBJECT_NAME    = H-2A R/B
OBJECT_ID      = 2002-056E
CENTER_NAME    = EARTH
REF_FRAME      = TEME
TIME_SYSTEM    = UTC
MEAN_ELEMENT_THEORY = SGP/SGP4

EPOCH          = 2026-03-14T20:53:18.855168
MEAN_MOTION    = 14.33764480
ECCENTRICITY   = .00707929
INCLINATION    = 98.3210
RA_OF_ASC_NODE = 34.0389
ARG_OF_PERICENTER = 145.3466
MEAN_ANOMALY   = 269.5911

EPHEMERIS_TYPE = 0
CLASSIFICATION_TYPE = U
NORAD_CAT_ID   = 27601
ELEMENT_SET_NO = 999
REV_AT_EPOCH   = 21485
BSTAR          = .11573585E-3
MEAN_MOTION_DOT = .289E-5
MEAN_MOTION_DDOT = 0

CCSDS_OMM_VERS = 2.0
CREATION_DATE  = 
ORIGINATOR     = 

OBJECT_NAME    = CZ-4B R/B
OBJECT_ID      = 2003-049C
CENTER_NAME    = EARTH
REF_FRAME      = TEME
TIME_SYSTEM    = UTC
MEAN_ELEMENT_THEORY = SGP/SGP4

EPOCH          = 2026-03-14T22:53:20.486112
MEAN_MOTION    = 14.55025743
ECCENTRICITY   = .0047462
INCLINATION    = 98.6882
RA_OF_ASC_NODE = 69.0652
ARG_OF_PERICENTER = 214.5477
MEAN_ANOMALY   = 145.2633

EPHEMERIS_TYPE = 0
CLASSIFICATION_TYPE = U
NORAD_CAT_ID   = 28059
ELEMENT_SET_NO = 999
REV_AT_EPOCH   = 18736
BSTAR          = .1095041E-3
MEAN_MOTION_DOT = .427E-5
MEAN_MOTION_DDOT = 0

CCSDS_OMM_VERS = 2.0
CREATION_DATE  = 
ORIGINATOR     = 

OBJECT_NAME    = CZ-2C R/B
OBJECT_ID      = 2004-012C
CENTER_NAME    = EARTH
REF_FRAME      = TEME
TIME_SYSTEM    = UTC
MEAN_ELEMENT_THEORY = SGP/SGP4

EPOCH          = 2026-03-14T22:00:02.699424
MEAN_MOTION    = 15.65193333
ECCENTRICITY   = .00129636
INCLINATION    = 97.7224
RA_OF_ASC_NODE = 139.7067
ARG_OF_PERICENTER = 287.8705
MEAN_ANOMALY   = 72.1139

EPHEMERIS_TYPE = 0
CLASSIFICATION_TYPE = U
NORAD_CAT_ID   = 28222
ELEMENT_SET_NO = 999
REV_AT_EPOCH   = 20509
BSTAR          = .70662398E-3
MEAN_MOTION_DOT = .70462E-3
MEAN_MOTION_DDOT = 0

CCSDS_OMM_VERS = 2.0
CREATION_DATE  = 
ORIGINATOR     = 

OBJECT_NAME    = SL-16 R/B
OBJECT_ID      = 2004-021B
CENTER_NAME    = EARTH
REF_FRAME      = TEME
TIME_SYSTEM    = UTC
MEAN_ELEMENT_THEORY = SGP/SGP4

EPOCH          = 2026-03-14T19:56:52.764000
MEAN_MOTION    = 14.14595821
ECCENTRICITY   = .00043484
INCLINATION    = 70.9997
RA_OF_ASC_NODE = 221.7021
ARG_OF_PERICENTER = 2.1276
MEAN_ANOMALY   = 357.9864

EPHEMERIS_TYPE = 0
CLASSIFICATION_TYPE = U
NORAD_CAT_ID   = 28353
ELEMENT_SET_NO = 999
REV_AT_EPOCH   = 12356
BSTAR          = -.12093665E-3
MEAN_MOTION_DOT = -.28E-5
MEAN_MOTION_DDOT = 0

CCSDS_OMM_VERS = 2.0
CREATION_DATE  = 
ORIGINATOR     = 

OBJECT_NAME    = CZ-4B R/B
OBJECT_ID      = 2004-035C
CENTER_NAME    = EARTH
REF_FRAME      = TEME
TIME_SYSTEM    = UTC
MEAN_ELEMENT_THEORY = SGP/SGP4

EPOCH          = 2026-03-14T19:36:43.680672
MEAN_MOTION    = 15.29164354
ECCENTRICITY   = .00304945
INCLINATION    = 97.3497
RA_OF_ASC_NODE = 107.9986
ARG_OF_PERICENTER = 312.5769
MEAN_ANOMALY   = 47.2899

EPHEMERIS_TYPE = 0
CLASSIFICATION_TYPE = U
NORAD_CAT_ID   = 28415
ELEMENT_SET_NO = 999
REV_AT_EPOCH   = 18069
BSTAR          = .3781396E-3
MEAN_MOTION_DOT = .1078E-3
MEAN_MOTION_DDOT = 0

CCSDS_OMM_VERS = 2.0
CREATION_DATE  = 
ORIGINATOR     = 

OBJECT_NAME    = CZ-2C R/B
OBJECT_ID      = 2004-046B
CENTER_NAME    = EARTH
REF_FRAME      = TEME
TIME_SYSTEM    = UTC
MEAN_ELEMENT_THEORY = SGP/SGP4

EPOCH          = 2026-03-14T17:52:02.960544
MEAN_MOTION    = 14.26994029
ECCENTRICITY   = .01401506
INCLINATION    = 98.1981
RA_OF_ASC_NODE = 348.4138
ARG_OF_PERICENTER = 139.5528
MEAN_ANOMALY   = 221.6175

EPHEMERIS_TYPE = 0
CLASSIFICATION_TYPE = U
NORAD_CAT_ID   = 28480
ELEMENT_SET_NO = 999
REV_AT_EPOCH   = 10922
BSTAR          = .67910394E-4
MEAN_MOTION_DOT = .143E-5
MEAN_MOTION_DDOT = 0

CCSDS_OMM_VERS = 2.0
CREATION_DATE  = 
ORIGINATOR     = 

OBJECT_NAME    = ARIANE 5 R/B
OBJECT_ID      = 2004-049H
CENTER_NAME    = EARTH
REF_FRAME      = TEME
TIME_SYSTEM    = UTC
MEAN_ELEMENT_THEORY = SGP/SGP4

EPOCH          = 2026-03-14T21:17:48.153696
MEAN_MOTION    = 14.85276439
ECCENTRICITY   = .00835705
INCLINATION    = 98.2635
RA_OF_ASC_NODE = 242.5391
ARG_OF_PERICENTER = 335.0147
MEAN_ANOMALY   = 24.7032

EPHEMERIS_TYPE = 0
CLASSIFICATION_TYPE = U
NORAD_CAT_ID   = 28499
ELEMENT_SET_NO = 999
REV_AT_EPOCH   = 14656
BSTAR          = .10191962E-3
MEAN_MOTION_DOT = .866E-5
MEAN_MOTION_DDOT = 0

CCSDS_OMM_VERS = 2.0
CREATION_DATE  = 
ORIGINATOR     = 

OBJECT_NAME    = CZ-2D R/B
OBJECT_ID      = 2005-024B
CENTER_NAME    = EARTH
REF_FRAME      = TEME
TIME_SYSTEM    = UTC
MEAN_ELEMENT_THEORY = SGP/SGP4

EPOCH          = 2026-03-14T18:36:48.011616
MEAN_MOTION    = 15.60651660
ECCENTRICITY   = .00049059
INCLINATION    = 97.3595
RA_OF_ASC_NODE = 89.1100
ARG_OF_PERICENTER = 33.6161
MEAN_ANOMALY   = 326.5407

EPHEMERIS_TYPE = 0
CLASSIFICATION_TYPE = U
NORAD_CAT_ID   = 28738
ELEMENT_SET_NO = 999
REV_AT_EPOCH   = 14057
BSTAR          = .7235941E-3
MEAN_MOTION_DOT = .60175E-3
MEAN_MOTION_DDOT = 0

CCSDS_OMM_VERS = 2.0
CREATION_DATE  = 
ORIGINATOR     = 

OBJECT_NAME    = ALOS (DAICHI)
OBJECT_ID      = 2006-002A
CENTER_NAME    = EARTH
REF_FRAME      = TEME
TIME_SYSTEM    = UTC
MEAN_ELEMENT_THEORY = SGP/SGP4

EPOCH          = 2026-03-14T21:08:35.694816
MEAN_MOTION    = 14.69828892
ECCENTRICITY   = .00007581
INCLINATION    = 98.1225
RA_OF_ASC_NODE = 29.8105
ARG_OF_PERICENTER = 66.0918
MEAN_ANOMALY   = 294.0367

EPHEMERIS_TYPE = 0
CLASSIFICATION_TYPE = U
NORAD_CAT_ID   = 28931
ELEMENT_SET_NO = 999
REV_AT_EPOCH   = 7424
BSTAR          = .27168904E-3
MEAN_MOTION_DOT = .1573E-4
MEAN_MOTION_DDOT = 0

